316P/LONEOS-Christensen,e,9.8639,245.7595,186.0307,4.390830,0.1071234,0.15472965,68.7896,07/01.0/2026,2000,g 13.5,4.0
# From MPC191622
317P/WISE,e,11.9745,275.4690,334.8769,2.959586,0.1935788,0.57208487,47.0688,07/01.0/2026,2000,g 17.5,4.0
# From MPC191623
319P/Catalina-McNaught,e,15.0960,111.3610,203.5678,3.560261,0.1467173,0.66778365,227.9168,07/01.0/2026,2000,g 15.0,4.0
# From MPC191623
320P/McNaught,e,4.9012,295.9428,0.7583,3.096092,0.1809186,0.68499253,0.5755,07/01.0/2026,2000,g 20.5,4.0
# From MPC191623
324P/LaSagra,e,21.3978,270.5682,57.3116,3.097921,0.1807584,0.15272237,340.9505,07/01.0/2026,2000,g 13.0,4.0
# From MPC191623
325P/Yang-Gao,e,16.8329,256.8652,344.8333,3.551986,0.1472303,0.58635104,230.0777,07/01.0/2026,2000,g 14.0,4.0
# From MPC191623
326P/Hill,e,2.4734,99.7514,277.5916,4.052639,0.1208084,0.32124874,110.7702,07/01.0/2026,2000,g 13.5,4.0
# From MPC191623
327P/VanNess,e,36.2208,173.9980,185.0151,3.563545,0.1465146,0.56230025,204.9644,07/01.0/2026,2000,g 16.0,4.0
# From MPC191623
328P/LONEOS-Tucker,e,17.7267,341.4708,30.5002,4.180161,0.1153226,0.55373474,81.0876,07/01.0/2026,2000,g 14.5,4.0
# From MPEC 2026-L50
329P/LINEAR-Catalina,e,21.7266,87.6490,343.6671,5.179075,0.0836230,0.67871969,322.2172,07/01.0/2026,2000,g 13.5,4.0
# From MPC191624
331P/Gibbs,e,9.7397,216.7373,186.0399,3.003505,0.1893484,0.04160861,35.2720,07/01.0/2026,2000,g 12.0,4.0
# From MPEC 2016-K18
332P/Ikeya-Murakami,e,9.3866,3.7548,152.3019,3.086233,0.1817863,0.49008498,323.1693,07/01.0/2026,2000,g 18.0,4.0
# From MPEC 2016-K18
332P-A/Ikeya-Murakami,e,9.3866,3.7548,152.3019,3.086233,0.1817863,0.49008498,323.1693,07/01.0/2026,2000,g 18.0,4.0
# From MPEC 2016-EI8
332P-B/Ikeya-Murakami,e,9.3805,3.8028,152.3711,3.082329,0.1821317,0.48970701,359.9699,03/17.0/2016,2000,g 19.0,4.0
# From MPEC 2016-K18
332P-C/Ikeya-Murakami,e,9.3857,3.7552,152.2932,3.086200,0.1817892,0.49009047,323.1887,07/01.0/2026,2000,g 16.5,4.0
# From MPEC 2016-ED0
332P-D/Ikeya-Murakami,e,9.3761,3.7923,152.4393,3.081138,0.1822373,0.48977814,359.9486,03/17.0/2016,2000,g 19.0,4.0
# From MPEC 2016-ED0
332P-G/Ikeya-Murakami,e,9.2523,3.6955,154.4000,3.050519,0.1849880,0.49200362,359.9006,03/19.0/2016,2000,g 19.0,4.0
# From MPC100285
332P-H/Ikeya-Murakami,e,9.3862,3.7550,152.2940,3.086374,0.1817738,0.49012665,323.0949,07/01.0/2026,2000,g 19.0,4.0
# From MPEC 2016-ED0
332P-I/Ikeya-Murakami,e,9.3791,3.8048,152.3297,3.081767,0.1821815,0.48955490,359.9360,03/17.0/2016,2000,g 20.5,2.0
# From MPC191624
333P/LINEAR,e,132.0225,115.7056,26.0454,4.222835,0.1135790,0.73635226,65.7211,07/01.0/2026,2000,g 15.0,4.0
# From MPC191624
334P/NEAT,e,20.3617,90.2288,90.1858,6.820609,0.0553311,0.35271867,183.2044,07/01.0/2026,2000,g 10.5,4.0
# From MPC191624
336P/McNaught,e,17.9521,298.2132,310.3620,4.970806,0.0889332,0.45287187,299.3398,07/01.0/2026,2000,g 13.5,4.0
# From MPC191624
338P/McNaught,e,25.4081,9.6002,4.5798,3.890678,0.1284299,0.41310475,89.5106,07/01.0/2026,2000,g 12.0,4.0
# From MPC191625
340P/Boattini,e,2.0788,291.5911,36.0752,4.244088,0.1127269,0.27949203,34.4947,07/01.0/2026,2000,g 13.0,4.0
# From MPC191625
341P/Gibbs,e,3.7959,29.9458,312.4233,4.285250,0.1111066,0.41487971,48.2390,07/01.0/2026,2000,g 12.5,4.0
# From MPC191625
343P/NEAT-LONEOS,e,5.5957,257.0600,137.5866,5.459258,0.0772687,0.58429386,265.4595,07/01.0/2026,2000,g 14.0,4.0
# From MPC191625
344P/Read,e,3.4992,273.0935,140.6767,4.852200,0.0922138,0.42347684,324.1180,07/01.0/2026,2000,g 13.0,4.0
# From MPC191625
345P/LINEAR,e,2.7291,154.4209,197.4202,4.041744,0.1212972,0.22159396,80.8179,07/01.0/2026,2000,g 12.0,4.0
# From MPC191625
346P/Catalina,e,22.2194,102.4562,336.1172,4.466415,0.1044156,0.50388126,356.7272,07/01.0/2026,2000,g 14.0,4.0
# From MPC191625
347P/PANSTARRS,e,11.7645,260.9661,97.9875,3.597057,0.1444718,0.38742465,155.7466,07/01.0/2026,2000,g 15.0,4.0
# From MPC191625
348P/PANSTARRS,e,17.7449,312.8882,135.8565,3.150757,0.1762307,0.30747751,281.5144,07/01.0/2026,2000,g 14.0,4.0
# From MPC191625
349P/Lemmon,e,5.4898,331.7383,255.6786,3.576680,0.1457082,0.29884687,111.4796,07/01.0/2026,2000,g 14.0,4.0
# From MPEC 2026-K60
350P/McNaught,e,7.3650,65.2988,140.1282,4.082559,0.1194828,0.09509495,12.5548,07/01.0/2026,2000,g 14.0,4.0
# From MPC191626
351P/Wiegert-PANSTARRS,e,12.7777,283.3787,352.4952,4.438820,0.1053908,0.29461688,48.7089,07/01.0/2026,2000,g 12.5,4.0
# From MPC191626
352P/Skiff,e,20.9920,28.0911,309.2963,6.657953,0.0573711,0.61539133,189.5133,07/01.0/2026,2000,g 11.5,4.0
# From MPC191626
353P/McNaught,e,28.4102,121.4568,230.5255,4.169542,0.1157635,0.46953653,359.9536,07/01.0/2026,2000,g 14.5,4.0
# From MPC191626
354P/LINEAR,e,5.2512,320.0554,133.0664,2.289921,0.2844286,0.12445994,281.6028,07/01.0/2026,2000,g 15.5,4.0
# From MPC191626
355P/LINEAR-NEAT,e,11.0461,51.4218,336.2312,3.466214,0.1527288,0.50778749,125.3946,07/01.0/2026,2000,g 15.5,2.0
# From MPEC 2026-HH0
356P/WISE,e,9.6405,160.7461,226.2995,4.149572,0.1166002,0.35549017,2.1596,07/01.0/2026,2000,g 14.0,4.0
# From MPC191626
357P/Hill,e,6.3130,44.5243,1.5681,4.453856,0.1048576,0.43575691,309.0469,07/01.0/2026,2000,g 15.5,4.0
# From MPC191626
358P/PANSTARRS,e,11.0667,85.6664,299.2701,3.145483,0.1766742,0.23932836,170.4897,07/01.0/2026,2000,g 18.0,4.0
# From MPC191626
359P/LONEOS,e,10.2594,149.6844,200.2711,4.643791,0.0984907,0.32291301,318.7051,07/01.0/2026,2000,g 13.5,4.0
# From MPC191626
360P/WISE,e,24.1577,1.9135,354.4844,3.698361,0.1385767,0.50012302,87.9836,07/01.0/2026,2000,g 19.5,6.0
# From MPC191627
361P/Spacewatch,e,13.8943,203.1929,219.1886,4.932762,0.0899640,0.43923667,262.1776,07/01.0/2026,2000,g 12.0,4.0
# From MPC191627
363P/Lemmon,e,5.3940,146.7449,340.8219,3.576557,0.1457157,0.51859806,86.6568,07/01.0/2026,2000,g 17.5,4.0
# From MPC191627
364P/PANSTARRS,e,11.8112,45.5877,213.0203,2.905008,0.1990596,0.71534815,228.4895,07/01.0/2026,2000,g 17.0,2.0
# From MPC191627
366P/Spacewatch,e,8.8558,70.7502,152.9262,3.500162,0.1505123,0.34879434,77.6873,07/01.0/2026,2000,g 15.0,4.0
# From MPC191627
367P/Catalina,e,8.4580,58.7011,172.5926,3.511268,0.1497987,0.28029385,80.2280,07/01.0/2026,2000,g 17.5,2.0
# From MPC191627
369P/Hill,e,10.3192,47.2556,13.2869,4.377448,0.1076149,0.55569620,302.2951,07/01.0/2026,2000,g 15.0,4.0
# From MPC191627
371P/LINEAR-Skiff,e,17.3863,67.2205,308.6123,4.180527,0.1153075,0.47631354,325.5087,07/01.0/2026,2000,g 16.0,4.0
# From MPC191628
372P/McNaught,e,9.4991,325.7548,27.5833,4.514834,0.1027404,0.15091647,288.8669,07/01.0/2026,2000,g 13.5,4.0
# From MPC191628
373P/Rinner,e,13.7724,231.9480,221.1622,3.796498,0.1332384,0.39391908,351.2013,07/01.0/2026,2000,g 14.5,4.0
# From MPC191628
374P/Larson,e,10.7546,7.8146,51.6531,4.971989,0.0889014,0.46321267,242.1749,07/01.0/2026,2000,g 14.0,4.0
# From MPC191628
376P/LONEOS,e,1.1663,312.8465,285.2807,5.752608,0.0714343,0.51422291,177.4231,07/01.0/2026,2000,g 12.5,4.0
# From MPC191628
377P/Scotti,e,9.0596,225.7363,355.1185,6.693855,0.0569101,0.25215744,124.0638,07/01.0/2026,2000,g  9.5,4.0
# From MPC191628
378P/McNaught,e,19.1583,93.7925,193.2045,6.284576,0.0625590,0.46262514,131.1904,07/01.0/2026,2000,g 12.0,4.0
# From MPEC 2026-M30
379P/Spacewatch,e,12.4292,183.5071,31.6312,3.484828,0.1515067,0.35013292,19.4004,07/01.0/2026,2000,g 15.0,4.0
# From MPC191628
380P/PANSTARRS,e,8.0448,127.6165,87.1144,4.461028,0.1046048,0.33225041,279.6930,07/01.0/2026,2000,g 12.5,4.0
# From MPC191629
382P/Larson,e,8.3254,169.1733,163.0441,5.888004,0.0689846,0.25986131,118.6228,07/01.0/2026,2000,g  8.0,4.0
# From MPC191629
383P/Christensen,e,12.3202,207.8158,133.7389,3.549514,0.1473841,0.59838903,359.7650,07/01.0/2026,2000,g 18.0,4.0
# From MPC191629
385P/Hill,e,16.8164,356.9756,44.5149,4.289609,0.1109373,0.40149216,274.9884,07/01.0/2026,2000,g 13.0,4.0
# From MPC191629
386P/PANSTARRS,e,15.2488,134.9174,353.1593,4.047417,0.1210423,0.41773357,258.8269,07/01.0/2026,2000,g 14.5,4.0
# From MPC191629
388P/Gibbs,e,23.8616,36.9854,42.4146,5.241383,0.0821363,0.61911080,207.8489,07/01.0/2026,2000,g 13.0,4.0
# From MPC191629
390P/Gibbs,e,18.5102,152.1646,232.6040,5.820133,0.0701948,0.70598798,160.9595,07/01.0/2026,2000,g 12.0,4.0
# From MPEC 2026-KB8
391P/Kowalski,e,21.2515,124.7060,186.6687,4.694716,0.0968925,0.11837187,294.3380,07/01.0/2026,2000,g  8.0,4.0
# From MPC191630
393P/Spacewatch-Hill,e,16.7771,36.4042,329.0426,4.803636,0.0936158,0.11847329,228.3820,07/01.0/2026,2000,g 11.0,4.0
# From MPC191630
394P/PANSTARRS,e,8.5278,98.0732,54.5718,4.323654,0.1096295,0.36887197,263.1984,07/01.0/2026,2000,g 16.0,2.4
# From MPC191630
395P/Catalina-NEAT,e,3.5658,220.9216,100.7985,7.201419,0.0510008,0.40984756,81.2795,07/01.0/2026,2000,g 10.0,4.0
# From MPC191630
396P/Leonard,e,5.4449,136.5996,8.3496,6.798678,0.0555990,0.41738329,138.7726,07/01.0/2026,2000,g 12.0,4.0
# From MPC191630
397P/Lemmon,e,10.9167,8.1530,14.6139,3.833127,0.1313331,0.40422072,289.2860,07/01.0/2026,2000,g 12.0,4.0
# From MPC191630
398P/Boattini,e,11.0284,127.4069,320.3070,3.123436,0.1785481,0.58376910,358.7583,07/01.0/2026,2000,g 15.5,4.0
# From MPEC 2026-L50
399P/PANSTARRS,e,13.3116,207.0890,214.4890,3.794042,0.1333678,0.44695302,248.6284,07/01.0/2026,2000,g 14.0,4.0
# From MPC191630
400P/PANSTARRS,e,10.9258,176.3212,238.9922,3.561757,0.1466249,0.40935828,288.1095,07/01.0/2026,2000,g 15.5,2.8
# From MPC191630
401P/McNaught,e,12.8049,359.8914,309.2778,5.775119,0.0710171,0.57825880,170.8217,07/01.0/2026,2000,g 12.5,4.0
# From MPC191631
402P/LINEAR,e,30.8291,123.0315,327.1228,7.047537,0.0526803,0.43972254,87.3321,07/01.0/2026,2000,g  8.0,4.0
# From MPC191631
403P/Catalina,e,12.3134,163.6946,277.8806,5.434838,0.0777901,0.50385967,164.2948,07/01.0/2026,2000,g 12.0,4.0
# From MPC194203
404P/Bressi,e,9.8037,260.0289,168.7116,4.714721,0.0962764,0.12356908,93.9644,07/01.0/2026,2000,g 10.0,4.0
# From MPC191631
405P/Lemmon,e,9.3761,3.1940,112.3327,3.602529,0.1441428,0.69029972,290.0032,07/01.0/2026,2000,g 17.5,4.0
# From MPC191631
406P/Gibbs,e,1.2098,11.4897,352.4201,3.580690,0.1454635,0.54074646,307.7770,07/01.0/2026,2000,g 17.0,4.0
